[{"id":1,"profile_id":1,"address":"4427 Morningstar Center","city":"Detroit","state":"Michigan","postal_code":"48232"},
{"id":2,"profile_id":2,"address":"23 Anthes Junction","city":"Canton","state":"Ohio","postal_code":"44720"},
{"id":3,"profile_id":3,"address":"3924 Hallows Hill","city":"San Antonio","state":"Texas","postal_code":"78205"},
{"id":4,"profile_id":4,"address":"7 Crownhardt Way","city":"Washington","state":"District of Columbia","postal_code":"20599"},
{"id":5,"profile_id":5,"address":"165 Karstens Drive","city":"Phoenix","state":"Arizona","postal_code":"85083"},
{"id":6,"profile_id":6,"address":"85 Maple Place","city":"Charlotte","state":"North Carolina","postal_code":"28247"},
{"id":7,"profile_id":7,"address":"61 Parkside Alley","city":"Las Vegas","state":"Nevada","postal_code":"89115"},
{"id":8,"profile_id":8,"address":"42 Longview Trail","city":"Los Angeles","state":"California","postal_code":"90030"},
{"id":9,"profile_id":9,"address":"6289 Loomis Way","city":"Phoenix","state":"Arizona","postal_code":"85045"},
{"id":10,"profile_id":10,"address":"3 Marquette Plaza","city":"San Antonio","state":"Texas","postal_code":"78245"},
{"id":11,"profile_id":11,"address":"7 Kings Drive","city":"Saint Louis","state":"Missouri","postal_code":"63150"},
{"id":12,"profile_id":12,"address":"5786 Warbler Point","city":"Sparks","state":"Nevada","postal_code":"89436"},
{"id":13,"profile_id":13,"address":"2544 Corry Pass","city":"Dallas","state":"Texas","postal_code":"75265"},
{"id":14,"profile_id":14,"address":"750 Milwaukee Avenue","city":"Shreveport","state":"Louisiana","postal_code":"71137"},
{"id":15,"profile_id":15,"address":"4 Mccormick Lane","city":"New Haven","state":"Connecticut","postal_code":"06520"},
{"id":16,"profile_id":16,"address":"063 Elgar Alley","city":"Reno","state":"Nevada","postal_code":"89550"},
{"id":17,"profile_id":17,"address":"513 Coolidge Avenue","city":"Greenville","state":"South Carolina","postal_code":"29615"},
{"id":18,"profile_id":18,"address":"981 Longview Street","city":"Washington","state":"District of Columbia","postal_code":"20231"},
{"id":19,"profile_id":19,"address":"43368 Londonderry Alley","city":"Dayton","state":"Ohio","postal_code":"45490"},
{"id":20,"profile_id":20,"address":"475 Ramsey Hill","city":"Falls Church","state":"Virginia","postal_code":"22047"},
{"id":21,"profile_id":21,"address":"4 Corben Circle","city":"North Little Rock","state":"Arkansas","postal_code":"72199"},
{"id":22,"profile_id":22,"address":"81 Thierer Avenue","city":"Alhambra","state":"California","postal_code":"91841"},
{"id":23,"profile_id":23,"address":"11013 David Way","city":"Chattanooga","state":"Tennessee","postal_code":"37450"},
{"id":24,"profile_id":24,"address":"1 Almo Alley","city":"Salt Lake City","state":"Utah","postal_code":"84130"},
{"id":25,"profile_id":25,"address":"31 Dottie Junction","city":"Spartanburg","state":"South Carolina","postal_code":"29305"},
{"id":26,"profile_id":26,"address":"303 Eastlawn Crossing","city":"Minneapolis","state":"Minnesota","postal_code":"55412"},
{"id":27,"profile_id":27,"address":"8 Lakewood Gardens Street","city":"Glendale","state":"California","postal_code":"91210"},
{"id":28,"profile_id":28,"address":"85154 Garrison Lane","city":"Washington","state":"District of Columbia","postal_code":"20036"},
{"id":29,"profile_id":29,"address":"3664 Heffernan Pass","city":"Shreveport","state":"Louisiana","postal_code":"71166"},
{"id":30,"profile_id":30,"address":"5 Ryan Court","city":"Reston","state":"Virginia","postal_code":"20195"},
{"id":31,"profile_id":31,"address":"02 Center Way","city":"Roanoke","state":"Virginia","postal_code":"24014"},
{"id":32,"profile_id":32,"address":"0908 6th Road","city":"Richmond","state":"Virginia","postal_code":"23260"},
{"id":33,"profile_id":33,"address":"7601 Sachtjen Circle","city":"Anchorage","state":"Alaska","postal_code":"99517"},
{"id":34,"profile_id":34,"address":"31826 Hudson Center","city":"Saint Louis","state":"Missouri","postal_code":"63143"},
{"id":35,"profile_id":35,"address":"347 Gina Street","city":"Baltimore","state":"Maryland","postal_code":"21282"},
{"id":36,"profile_id":36,"address":"41 Brickson Park Place","city":"Winston Salem","state":"North Carolina","postal_code":"27116"},
{"id":37,"profile_id":37,"address":"8237 Shoshone Lane","city":"Norwalk","state":"Connecticut","postal_code":"06859"},
{"id":38,"profile_id":38,"address":"343 Fair Oaks Street","city":"Jacksonville","state":"Florida","postal_code":"32215"},
{"id":39,"profile_id":39,"address":"71330 Oriole Trail","city":"Pensacola","state":"Florida","postal_code":"32575"},
{"id":40,"profile_id":40,"address":"4743 Dexter Center","city":"Charlottesville","state":"Virginia","postal_code":"22908"},
{"id":41,"profile_id":41,"address":"45 Scoville Plaza","city":"El Paso","state":"Texas","postal_code":"79994"},
{"id":42,"profile_id":42,"address":"72250 Daystar Plaza","city":"Erie","state":"Pennsylvania","postal_code":"16550"},
{"id":43,"profile_id":43,"address":"78318 Chive Road","city":"Atlanta","state":"Georgia","postal_code":"30340"},
{"id":44,"profile_id":44,"address":"3609 Elgar Crossing","city":"Madison","state":"Wisconsin","postal_code":"53705"},
{"id":45,"profile_id":45,"address":"35967 Nova Plaza","city":"Berkeley","state":"California","postal_code":"94705"},
{"id":46,"profile_id":46,"address":"3 Dwight Court","city":"Dallas","state":"Texas","postal_code":"75216"},
{"id":47,"profile_id":47,"address":"36866 Muir Trail","city":"Decatur","state":"Georgia","postal_code":"30033"},
{"id":48,"profile_id":48,"address":"669 Northfield Point","city":"Greenville","state":"South Carolina","postal_code":"29615"},
{"id":49,"profile_id":49,"address":"791 Pearson Way","city":"Atlanta","state":"Georgia","postal_code":"31190"},
{"id":50,"profile_id":50,"address":"1 Mcguire Street","city":"Saint Cloud","state":"Minnesota","postal_code":"56398"},
{"id":51,"profile_id":51,"address":"46 Corry Avenue","city":"Des Moines","state":"Iowa","postal_code":"50981"},
{"id":52,"profile_id":52,"address":"0892 Evergreen Place","city":"Santa Fe","state":"New Mexico","postal_code":"87505"},
{"id":53,"profile_id":53,"address":"32542 Valley Edge Pass","city":"Corpus Christi","state":"Texas","postal_code":"78465"},
{"id":54,"profile_id":54,"address":"4632 Muir Drive","city":"Charleston","state":"West Virginia","postal_code":"25362"},
{"id":55,"profile_id":55,"address":"2504 Muir Court","city":"Newark","state":"New Jersey","postal_code":"07112"},
{"id":56,"profile_id":56,"address":"147 Lillian Trail","city":"Los Angeles","state":"California","postal_code":"90087"},
{"id":57,"profile_id":57,"address":"46 Ramsey Alley","city":"Roanoke","state":"Virginia","postal_code":"24004"},
{"id":58,"profile_id":58,"address":"27 Montana Circle","city":"Los Angeles","state":"California","postal_code":"90025"},
{"id":59,"profile_id":59,"address":"30 Brickson Park Circle","city":"Anchorage","state":"Alaska","postal_code":"99599"},
{"id":60,"profile_id":60,"address":"698 Warbler Drive","city":"Miami","state":"Florida","postal_code":"33111"},
{"id":61,"profile_id":61,"address":"01 Hagan Lane","city":"Fullerton","state":"California","postal_code":"92835"},
{"id":62,"profile_id":62,"address":"211 Emmet Street","city":"Evansville","state":"Indiana","postal_code":"47725"},
{"id":63,"profile_id":63,"address":"0 Clove Plaza","city":"Philadelphia","state":"Pennsylvania","postal_code":"19120"},
{"id":64,"profile_id":64,"address":"46840 Melody Plaza","city":"High Point","state":"North Carolina","postal_code":"27264"},
{"id":65,"profile_id":65,"address":"89 Sugar Terrace","city":"Hot Springs National Park","state":"Arkansas","postal_code":"71914"},
{"id":66,"profile_id":66,"address":"5249 East Road","city":"North Las Vegas","state":"Nevada","postal_code":"89036"},
{"id":67,"profile_id":67,"address":"16 Memorial Terrace","city":"Charleston","state":"West Virginia","postal_code":"25356"},
{"id":68,"profile_id":68,"address":"76 Kingsford Alley","city":"Albany","state":"New York","postal_code":"12255"},
{"id":69,"profile_id":69,"address":"1981 Roth Avenue","city":"Baton Rouge","state":"Louisiana","postal_code":"70826"},
{"id":70,"profile_id":70,"address":"18097 Vermont Crossing","city":"Buffalo","state":"New York","postal_code":"14263"},
{"id":71,"profile_id":71,"address":"6184 Ilene Circle","city":"Miami","state":"Florida","postal_code":"33164"},
{"id":72,"profile_id":72,"address":"90483 Burrows Terrace","city":"Nashville","state":"Tennessee","postal_code":"37250"},
{"id":73,"profile_id":73,"address":"4 Oak Road","city":"Hialeah","state":"Florida","postal_code":"33013"},
{"id":74,"profile_id":74,"address":"38 North Trail","city":"Palmdale","state":"California","postal_code":"93591"},
{"id":75,"profile_id":75,"address":"22 Westerfield Alley","city":"Sacramento","state":"California","postal_code":"95828"},
{"id":76,"profile_id":76,"address":"4219 Meadow Ridge Parkway","city":"Louisville","state":"Kentucky","postal_code":"40298"},
{"id":77,"profile_id":77,"address":"44 Scott Court","city":"Baton Rouge","state":"Louisiana","postal_code":"70836"},
{"id":78,"profile_id":78,"address":"2638 Fairview Drive","city":"Elmira","state":"New York","postal_code":"14905"},
{"id":79,"profile_id":79,"address":"37 Rieder Trail","city":"Detroit","state":"Michigan","postal_code":"48242"},
{"id":80,"profile_id":80,"address":"71904 Armistice Terrace","city":"Terre Haute","state":"Indiana","postal_code":"47812"},
{"id":81,"profile_id":81,"address":"2 4th Point","city":"Colorado Springs","state":"Colorado","postal_code":"80940"},
{"id":82,"profile_id":82,"address":"6 Pawling Parkway","city":"Louisville","state":"Kentucky","postal_code":"40256"},
{"id":83,"profile_id":83,"address":"920 Barnett Court","city":"Bronx","state":"New York","postal_code":"10469"},
{"id":84,"profile_id":84,"address":"13300 Fulton Alley","city":"Macon","state":"Georgia","postal_code":"31210"},
{"id":85,"profile_id":85,"address":"5569 Vera Trail","city":"Shreveport","state":"Louisiana","postal_code":"71115"},
{"id":86,"profile_id":86,"address":"4757 Evergreen Road","city":"Washington","state":"District of Columbia","postal_code":"20470"},
{"id":87,"profile_id":87,"address":"03488 Eastwood Way","city":"Independence","state":"Missouri","postal_code":"64054"},
{"id":88,"profile_id":88,"address":"82501 Katie Circle","city":"San Jose","state":"California","postal_code":"95150"},
{"id":89,"profile_id":89,"address":"8 Fallview Street","city":"Montgomery","state":"Alabama","postal_code":"36134"},
{"id":90,"profile_id":90,"address":"4 Westport Junction","city":"Johnson City","state":"Tennessee","postal_code":"37605"},
{"id":91,"profile_id":91,"address":"719 North Plaza","city":"North Little Rock","state":"Arkansas","postal_code":"72118"},
{"id":92,"profile_id":92,"address":"0 Transport Hill","city":"Orlando","state":"Florida","postal_code":"32891"},
{"id":93,"profile_id":93,"address":"15 Dennis Trail","city":"Kansas City","state":"Missouri","postal_code":"64109"},
{"id":94,"profile_id":94,"address":"1 Grover Plaza","city":"Peoria","state":"Illinois","postal_code":"61656"},
{"id":95,"profile_id":95,"address":"9 Waxwing Drive","city":"Shawnee Mission","state":"Kansas","postal_code":"66205"},
{"id":96,"profile_id":96,"address":"2 Rieder Center","city":"Corpus Christi","state":"Texas","postal_code":"78465"},
{"id":97,"profile_id":97,"address":"24454 Rieder Way","city":"Columbus","state":"Ohio","postal_code":"43215"},
{"id":98,"profile_id":98,"address":"413 Forster Drive","city":"El Paso","state":"Texas","postal_code":"88553"},
{"id":99,"profile_id":99,"address":"44 High Crossing Center","city":"Pasadena","state":"California","postal_code":"91109"},
{"id":100,"profile_id":100,"address":"67811 Stephen Street","city":"Denver","state":"Colorado","postal_code":"80241"}]